{
  "norad_id": 66520,
  "name": "STARLINK-35952",
  "history": [
    {
      "epoch": "2026-03-28T14:27:29.463840Z",
      "apogee_km": 484.16499003832087,
      "perigee_km": 482.0091934286984,
      "latitude_deg": -5.37936942895936e-05,
      "longitude_deg": 128.4324642840583,
      "height_km": 482.9889938936819,
      "semi_major_axis_km": 6861.224091733509,
      "eccentricity": 0.0001571,
      "inclination_deg": 42.9983,
      "raan_deg": 171.3258,
      "arg_perigee_deg": 263.3262,
      "mean_anomaly_deg": 96.741,
      "mean_motion_rev_day": 15.27567311
    }
  ]
}